NORAD_CAT_ID,OBJECT_NAME,OBJECT_TYPE,EPOCH,MEAN_MOTION,ECCENTRICITY,INCLINATION,RA_OF_ASC_NODE,ARG_OF_PERICENTER,MEAN_ANOMALY,BSTAR,MEAN_MOTION_DOT,MEAN_MOTION_DDOT,TLE_LINE0,TLE_LINE1,TLE_LINE2,SEMIMAJOR_AXIS,PERIOD,APOGEE,PERIGEE,DECAYED
56794.0,STARLINK-6060,PAYLOAD,2023-08-29 04:58:14,15.69915387,0.0003399,69.9972,160.4454,264.7325,95.3483,2.3585e-05,2.623e-05,0.0,0 STARLINK-6060,1 56794U 23078AD  23241.20711660  .00002623  00000-0  23585-4 0  9996,2 56794  69.9972 160.4454 0003399 264.7325  95.3483 15.69915387 14429,6737.276,91.725,361.431,356.851,0.0
56794.0,STARLINK-6060,PAYLOAD,2023-08-30 05:26:16,15.69932548,0.0003768,69.9978,157.5788,283.5441,76.5335,4.8642e-06,3.72e-06,0.0,0 STARLINK-6060,1 56794U 23078AD  23242.22657821  .00000372  00000-0  48642-5 0  9998,2 56794  69.9978 157.5788 0003768 283.5441  76.5335 15.69932548 14582,6737.227,91.724,361.631,356.553,0.0
56794.0,STARLINK-6060,PAYLOAD,2023-08-30 11:33:44,15.69566612,0.0003915,69.9976,156.8649,236.1273,123.9551,-0.0003801,-0.00045011,0.0,0 STARLINK-6060,1 56794U 23078AD  23242.48176227 -.00045011  00000-0 -38010-3 0  9999,2 56794  69.9976 156.8649 0003915 236.1273 123.9551 15.69566612 14626,6738.274,91.745,362.777,357.501,0.0
56794.0,STARLINK-6060,PAYLOAD,2023-08-31 04:22:33,15.69920503,0.0003397,69.9972,154.8928,266.818,93.2627,2.1291e-05,2.348e-05,0.0,0 STARLINK-6060,1 56794U 23078AD  23243.18233459  .00002348  00000-0  21291-4 0  9996,2 56794  69.9972 154.8928 0003397 266.8180  93.2627 15.69920503 14739,6737.261,91.724,361.415,356.838,0.0
56794.0,STARLINK-6060,PAYLOAD,2023-09-01 10:57:39,15.69885853,0.0003248,69.9965,151.3126,264.0475,96.035,-9.6974e-05,-0.00011838,0.0,0 STARLINK-6060,1 56794U 23078AD  23244.45670492 -.00011838  00000-0 -96974-4 0  9995,2 56794  69.9965 151.3126 0003248 264.0475  96.0350 15.69885853 14939,6737.361,91.726,361.414,357.037,0.0
56794.0,STARLINK-6060,PAYLOAD,2023-09-02 19:04:23,15.69930582,0.0003226,69.9971,147.548,266.9263,93.1563,1.1935e-05,1.223e-05,0.0,0 STARLINK-6060,1 56794U 23078AD  23245.79471306  .00001223  00000-0  11935-4 0  9995,2 56794  69.9971 147.5480 0003226 266.9263  93.1563 15.69930582 14886,6737.233,91.724,361.271,356.924,0.0
56794.0,STARLINK-6060,PAYLOAD,2023-09-03 02:43:10,15.69912271,0.0002677,69.9978,146.6532,263.0557,97.0334,-8.4155e-06,-1.223e-05,0.0,0 STARLINK-6060,1 56794U 23078AD  23246.11331240 -.00001223  00000-0 -84155-5 0  9991,2 56794  69.9978 146.6532 0002677 263.0557  97.0334 15.69912271 15193,6737.285,91.725,360.954,357.346,0.0
56794.0,STARLINK-6060,PAYLOAD,2023-09-03 10:21:54,15.69923825,0.0003074,69.998,145.7565,268.98,91.1043,-7.4279e-07,-3.02e-06,0.0,0 STARLINK-6060,1 56794U 23078AD  23246.43188403 -.00000302  00000-0 -74279-6 0  9991,2 56794  69.9980 145.7565 0003074 268.9800  91.1043 15.69923825 15244,6737.252,91.724,361.188,357.046,0.0
56794.0,STARLINK-6060,PAYLOAD,2023-09-03 16:28:50,15.70046527,0.0003511,69.998,145.0402,263.9296,96.15,0.00031768,0.00038356,0.0,0 STARLINK-6060,1 56794U 23078AD  23246.68669622  .00038356  00000-0  31768-3 0  9996,2 56794  69.9980 145.0402 0003511 263.9296  96.1500 15.70046527 15281,6736.901,91.717,361.131,356.401,0.0
56794.0,STARLINK-6060,PAYLOAD,2023-09-04 00:07:40,15.69943636,0.0003233,69.998,144.1444,274.3972,85.6854,-0.00013682,-0.00016644,0.0,0 STARLINK-6060,1 56794U 23078AD  23247.00533535 -.00016644  00000-0 -13682-3 0  9999,2 56794  69.9980 144.1444 0003233 274.3972  85.6854 15.69943636 15331,6737.195,91.723,361.238,356.882,0.0
56794.0,STARLINK-6060,PAYLOAD,2023-09-04 10:49:57,15.69910428,0.000302,69.9988,142.891,274.447,85.6381,-3.7367e-05,-4.7e-05,0.0,0 STARLINK-6060,1 56794U 23078AD  23247.45135819 -.00004700  00000-0 -37367-4 0  9998,2 56794  69.9988 142.8910 0003020 274.4470  85.6381 15.69910428 15147,6737.29,91.725,361.19,357.121,0.0
56794.0,STARLINK-6060,PAYLOAD,2023-09-05 03:39:13,15.69926107,0.0002871,69.9976,140.918,269.2134,90.8733,7.232e-06,6.57e-06,0.0,0 STARLINK-6060,1 56794U 23078AD  23248.15223595  .00000657  00000-0  72320-5 0  9999,2 56794  69.9976 140.9180 0002871 269.2134  90.8733 15.69926107 15515,6737.245,91.724,361.045,357.176,0.0
56794.0,STARLINK-6060,PAYLOAD,2023-09-06 05:39:00,15.69916955,0.000311,69.9989,137.8744,270.1867,89.8973,1.0709e-05,1.075e-05,0.0,0 STARLINK-6060,1 56794U 23078AD  23249.23542643  .00001075  00000-0  10709-4 0  9994,2 56794  69.9989 137.8744 0003110 270.1867  89.8973 15.69916955 15683,6737.272,91.725,361.232,357.041,0.0
56794.0,STARLINK-6060,PAYLOAD,2023-09-07 01:31:46,15.69929446,0.0003347,69.9978,135.546,265.036,95.0454,8.3623e-06,7.93e-06,0.0,0 STARLINK-6060,1 56794U 23078AD  23250.06373823  .00000793  00000-0  83623-5 0  9991,2 56794  69.9978 135.5460 0003347 265.0360  95.0454 15.69929446 15811,6737.236,91.724,361.356,356.846,0.0
56794.0,STARLINK-6060,PAYLOAD,2023-09-07 03:03:32,15.69927071,0.0003329,69.9978,135.3668,265.1563,94.9252,5.4264e-06,4.4e-06,0.0,0 STARLINK-6060,1 56794U 23078AD  23250.12745716  .00000440  00000-0  54264-5 0  9990,2 56794  69.9978 135.3668 0003329 265.1563  94.9252 15.69927071 15563,6737.243,91.724,361.35,356.865,0.0
56794.0,STARLINK-6060,PAYLOAD,2023-09-07 15:17:33,15.69928124,0.0003412,69.9988,133.934,265.2971,94.7836,1.1959e-05,1.226e-05,0.0,0 STARLINK-6060,1 56794U 23078AD  23250.63718807  .00001226  00000-0  11959-4 0  9993,2 56794  69.9988 133.9340 0003412 265.2971  94.7836 15.69928124 15647,6737.24,91.724,361.403,356.806,0.0
56794.0,STARLINK-6060,PAYLOAD,2023-09-08 01:59:49,15.69922923,0.0003529,69.9975,132.679,266.5729,93.5063,6.3951e-06,5.56e-06,0.0,0 STARLINK-6060,1 56794U 23078AD  23251.08320923  .00000556  00000-0  63951-5 0  9996,2 56794  69.9975 132.6790 0003529 266.5729  93.5063 15.69922923 15978,6737.255,91.724,361.497,356.742,0.0
56794.0,STARLINK-6060,PAYLOAD,2023-09-08 18:49:04,15.69932654,0.0003192,69.9987,130.7083,253.4139,106.6706,1.882e-05,2.052e-05,0.0,0 STARLINK-6060,1 56794U 23078AD  23251.78408506  .00002052  00000-0  18820-4 0  9994,2 56794  69.9987 130.7083 0003192 253.4139 106.6706 15.69932654 16086,6737.227,91.724,361.242,356.941,0.0
56794.0,STARLINK-6060,PAYLOAD,2023-09-09 02:27:50,15.69927869,0.0003689,69.9971,129.8131,268.1713,91.906,1.0714e-05,1.076e-05,0.0,0 STARLINK-6060,1 56794U 23078AD  23252.10267261  .00001076  00000-0  10714-4 0  9991,2 56794  69.9971 129.8131 0003689 268.1713  91.9060 15.69927869 16131,6737.24,91.724,361.591,356.62,0.0
56794.0,STARLINK-6060,PAYLOAD,2023-09-10 01:24:08,15.69919647,0.0003327,69.9969,127.1239,269.1866,90.8949,5.488e-06,4.47e-06,0.0,0 STARLINK-6060,1 56794U 23078AD  23253.05842946  .00000447  00000-0  54880-5 0  9999,2 56794  69.9969 127.1239 0003327 269.1866  90.8949 15.69919647 16282,6737.264,91.724,361.37,356.887,0.0
56794.0,STARLINK-6060,PAYLOAD,2023-09-11 00:20:24,15.69935423,0.0003158,69.9985,124.4385,260.3961,99.6878,-1.5068e-06,-3.94e-06,0.0,0 STARLINK-6060,1 56794U 23078AD  23254.01417315 -.00000394  00000-0 -15068-5 0  9992,2 56794  69.9985 124.4385 0003158 260.3961  99.6878 15.69935423 16438,6737.219,91.724,361.211,356.956,0.0
56794.0,STARLINK-6060,PAYLOAD,2023-09-11 17:09:41,15.69921102,0.0002849,69.9991,122.4703,245.9792,114.1106,2.1357e-05,2.356e-05,0.0,0 STARLINK-6060,1 56794U 23078AD  23254.71505970  .00002356  00000-0  21357-4 0  9999,2 56794  69.9991 122.4703 0002849 245.9792 114.1106 15.69921102 16542,6737.26,91.724,361.044,357.205,0.0
56794.0,STARLINK-6060,PAYLOAD,2023-09-12 00:48:27,15.69918966,0.000292,69.9983,121.573,258.8859,101.2009,1.503e-05,1.595e-05,0.0,0 STARLINK-6060,1 56794U 23078AD  23255.03364785  .00001595  00000-0  15030-4 0  9997,2 56794  69.9983 121.5730 0002920 258.8859 101.2009 15.69918966 16598,6737.266,91.724,361.098,357.164,0.0
56794.0,STARLINK-6060,PAYLOAD,2023-09-12 17:37:43,15.69928311,0.0003328,69.9979,119.6016,267.0859,92.9956,1.2109e-06,-6.7e-07,0.0,0 STARLINK-6060,1 56794U 23078AD  23255.73452948 -.00000067  00000-0  12109-5 0  9992,2 56794  69.9979 119.6016 0003328 267.0859  92.9956 15.69928311 16449,6737.239,91.724,361.346,356.862,0.0
56794.0,STARLINK-6060,PAYLOAD,2023-09-13 01:16:28,15.69935027,0.0003128,69.997,118.7045,272.9858,87.098,7.9594e-06,7.45e-06,0.0,0 STARLINK-6060,1 56794U 23078AD  23256.05310721  .00000745  00000-0  79594-5 0  9993,2 56794  69.9970 118.7045 0003128 272.9858  87.0980 15.69935027 16752,6737.22,91.724,361.192,356.977,0.0
56794.0,STARLINK-6060,PAYLOAD,2023-09-13 18:05:47,15.69895068,0.0002997,69.9977,116.7352,268.8409,91.2443,-1.8126e-05,-2.389e-05,0.0,0 STARLINK-6060,1 56794U 23078AD  23256.75401814 -.00002389  00000-0 -18126-4 0  9995,2 56794  69.9977 116.7352 0002997 268.8409  91.2443 15.69895068 16860,6737.334,91.726,361.218,357.18,0.0
56794.0,STARLINK-6060,PAYLOAD,2023-09-13 19:37:32,15.69894312,0.0003197,69.9973,116.5549,276.2989,83.7843,-1.8748e-05,-2.463e-05,0.0,0 STARLINK-6060,1 56794U 23078AD  23256.81773678 -.00002463  00000-0 -18748-4 0  9995,2 56794  69.9973 116.5549 0003197 276.2989  83.7843 15.69894312 16615,6737.336,91.726,361.355,357.047,0.0
56794.0,STARLINK-6060,PAYLOAD,2023-09-14 01:44:32,15.69907887,0.0003675,69.9965,115.8385,267.5853,92.4922,1.0111e-06,-9.1e-07,0.0,0 STARLINK-6060,1 56794U 23078AD  23257.07259455 -.00000091  00000-0  10111-5 0  9997,2 56794  69.9965 115.8385 0003675 267.5853  92.4922 15.69907887 16910,6737.298,91.725,361.638,356.687,0.0
56794.0,STARLINK-6060,PAYLOAD,2023-09-14 17:02:01,15.69934264,0.0003365,69.9967,114.0469,268.1659,91.9151,1.2289e-05,1.266e-05,0.0,0 STARLINK-6060,1 56794U 23078AD  23257.70974494  .00001266  00000-0  12289-4 0  9995,2 56794  69.9967 114.0469 0003365 268.1659  91.9151 15.69934264 17012,6737.222,91.724,361.354,356.82,0.0
56794.0,STARLINK-6060,PAYLOAD,2023-09-15 00:40:48,15.69925522,0.0003339,69.9966,113.1494,272.4433,87.638,9.5087e-06,9.31e-06,0.0,0 STARLINK-6060,1 56794U 23078AD  23258.02833342  .00000931  00000-0  95087-5 0  9993,2 56794  69.9966 113.1494 0003339 272.4433  87.6380 15.69925522 17066,6737.247,91.724,361.362,356.863,0.0
